CCSDS_OMM_VERS = 2.0
CREATION_DATE  = 
ORIGINATOR     = 

OBJECT_NAME    = STARLINK-36840
OBJECT_ID      = 2026-034A
CENTER_NAME    = EARTH
REF_FRAME      = TEME
TIME_SYSTEM    = UTC
MEAN_ELEMENT_THEORY = SGP/SGP4

EPOCH          = 2026-03-02T22:00:01.999584
MEAN_MOTION    = 15.80845867
ECCENTRICITY   = .00010854
INCLINATION    = 53.1610
RA_OF_ASC_NODE = 245.3036
ARG_OF_PERICENTER = 56.0385
MEAN_ANOMALY   = 16.7645

EPHEMERIS_TYPE = 0
CLASSIFICATION_TYPE = U
NORAD_CAT_ID   = 67850
ELEMENT_SET_NO = 999
REV_AT_EPOCH   = 282
BSTAR          = .24653205E-3
MEAN_MOTION_DOT = .48169E-3
MEAN_MOTION_DDOT = 0

CCSDS_OMM_VERS = 2.0
CREATION_DATE  = 
ORIGINATOR     = 

OBJECT_NAME    = STARLINK-36348
OBJECT_ID      = 2026-034B
CENTER_NAME    = EARTH
REF_FRAME      = TEME
TIME_SYSTEM    = UTC
MEAN_ELEMENT_THEORY = SGP/SGP4

EPOCH          = 2026-03-02T22:00:01.999584
MEAN_MOTION    = 15.80848914
ECCENTRICITY   = .00010847
INCLINATION    = 53.1586
RA_OF_ASC_NODE = 245.2938
ARG_OF_PERICENTER = 54.6264
MEAN_ANOMALY   = 22.4497

EPHEMERIS_TYPE = 0
CLASSIFICATION_TYPE = U
NORAD_CAT_ID   = 67851
ELEMENT_SET_NO = 999
REV_AT_EPOCH   = 277
BSTAR          = .22689115E-3
MEAN_MOTION_DOT = .44262E-3
MEAN_MOTION_DDOT = 0

CCSDS_OMM_VERS = 2.0
CREATION_DATE  = 
ORIGINATOR     = 

OBJECT_NAME    = STARLINK-36276
OBJECT_ID      = 2026-034C
CENTER_NAME    = EARTH
REF_FRAME      = TEME
TIME_SYSTEM    = UTC
MEAN_ELEMENT_THEORY = SGP/SGP4

EPOCH          = 2026-03-02T22:00:01.999584
MEAN_MOTION    = 15.80821762
ECCENTRICITY   = .0001413
INCLINATION    = 53.1586
RA_OF_ASC_NODE = 245.2851
ARG_OF_PERICENTER = 54.0415
MEAN_ANOMALY   = 27.3075

EPHEMERIS_TYPE = 0
CLASSIFICATION_TYPE = U
NORAD_CAT_ID   = 67852
ELEMENT_SET_NO = 999
REV_AT_EPOCH   = 277
BSTAR          = .47293562E-3
MEAN_MOTION_DOT = .93437E-3
MEAN_MOTION_DDOT = 0

CCSDS_OMM_VERS = 2.0
CREATION_DATE  = 
ORIGINATOR     = 

OBJECT_NAME    = STARLINK-36785
OBJECT_ID      = 2026-034D
CENTER_NAME    = EARTH
REF_FRAME      = TEME
TIME_SYSTEM    = UTC
MEAN_ELEMENT_THEORY = SGP/SGP4

EPOCH          = 2026-03-02T22:00:01.999584
MEAN_MOTION    = 15.80830598
ECCENTRICITY   = .00013302
INCLINATION    = 53.1588
RA_OF_ASC_NODE = 245.2761
ARG_OF_PERICENTER = 50.7160
MEAN_ANOMALY   = 34.9105

EPHEMERIS_TYPE = 0
CLASSIFICATION_TYPE = U
NORAD_CAT_ID   = 67853
ELEMENT_SET_NO = 999
REV_AT_EPOCH   = 277
BSTAR          = .36428332E-3
MEAN_MOTION_DOT = .71657E-3
MEAN_MOTION_DDOT = 0

CCSDS_OMM_VERS = 2.0
CREATION_DATE  = 
ORIGINATOR     = 

OBJECT_NAME    = STARLINK-36608
OBJECT_ID      = 2026-034E
CENTER_NAME    = EARTH
REF_FRAME      = TEME
TIME_SYSTEM    = UTC
MEAN_ELEMENT_THEORY = SGP/SGP4

EPOCH          = 2026-03-02T22:00:01.999584
MEAN_MOTION    = 15.80830062
ECCENTRICITY   = .00011304
INCLINATION    = 53.1581
RA_OF_ASC_NODE = 245.2669
ARG_OF_PERICENTER = 58.9597
MEAN_ANOMALY   = 30.9494

EPHEMERIS_TYPE = 0
CLASSIFICATION_TYPE = U
NORAD_CAT_ID   = 67854
ELEMENT_SET_NO = 999
REV_AT_EPOCH   = 277
BSTAR          = .28976655E-3
MEAN_MOTION_DOT = .56755E-3
MEAN_MOTION_DDOT = 0

CCSDS_OMM_VERS = 2.0
CREATION_DATE  = 
ORIGINATOR     = 

OBJECT_NAME    = STARLINK-36838
OBJECT_ID      = 2026-034F
CENTER_NAME    = EARTH
REF_FRAME      = TEME
TIME_SYSTEM    = UTC
MEAN_ELEMENT_THEORY = SGP/SGP4

EPOCH          = 2026-03-02T22:00:01.999584
MEAN_MOTION    = 15.80818505
ECCENTRICITY   = .00014266
INCLINATION    = 53.1583
RA_OF_ASC_NODE = 245.2581
ARG_OF_PERICENTER = 44.3720
MEAN_ANOMALY   = 49.8142

EPHEMERIS_TYPE = 0
CLASSIFICATION_TYPE = U
NORAD_CAT_ID   = 67855
ELEMENT_SET_NO = 999
REV_AT_EPOCH   = 277
BSTAR          = .36918329E-3
MEAN_MOTION_DOT = .72597E-3
MEAN_MOTION_DDOT = 0

CCSDS_OMM_VERS = 2.0
CREATION_DATE  = 
ORIGINATOR     = 

OBJECT_NAME    = STARLINK-36843
OBJECT_ID      = 2026-034G
CENTER_NAME    = EARTH
REF_FRAME      = TEME
TIME_SYSTEM    = UTC
MEAN_ELEMENT_THEORY = SGP/SGP4

EPOCH          = 2026-03-02T22:00:01.999584
MEAN_MOTION    = 15.80853134
ECCENTRICITY   = .00011802
INCLINATION    = 53.1583
RA_OF_ASC_NODE = 245.2406
ARG_OF_PERICENTER = 64.1136
MEAN_ANOMALY   = 38.6022

EPHEMERIS_TYPE = 0
CLASSIFICATION_TYPE = U
NORAD_CAT_ID   = 67856
ELEMENT_SET_NO = 999
REV_AT_EPOCH   = 277
BSTAR          = .16591533E-3
MEAN_MOTION_DOT = .32139E-3
MEAN_MOTION_DDOT = 0

CCSDS_OMM_VERS = 2.0
CREATION_DATE  = 
ORIGINATOR     = 

OBJECT_NAME    = STARLINK-36828
OBJECT_ID      = 2026-034H
CENTER_NAME    = EARTH
REF_FRAME      = TEME
TIME_SYSTEM    = UTC
MEAN_ELEMENT_THEORY = SGP/SGP4

EPOCH          = 2026-03-02T22:00:01.999584
MEAN_MOTION    = 15.80825443
ECCENTRICITY   = .00011838
INCLINATION    = 53.1581
RA_OF_ASC_NODE = 245.2499
ARG_OF_PERICENTER = 57.6355
MEAN_ANOMALY   = 40.8053

EPHEMERIS_TYPE = 0
CLASSIFICATION_TYPE = U
NORAD_CAT_ID   = 67857
ELEMENT_SET_NO = 999
REV_AT_EPOCH   = 277
BSTAR          = .50635645E-3
MEAN_MOTION_DOT = .100185E-2
MEAN_MOTION_DDOT = 0

CCSDS_OMM_VERS = 2.0
CREATION_DATE  = 
ORIGINATOR     = 

OBJECT_NAME    = STARLINK-36837
OBJECT_ID      = 2026-034J
CENTER_NAME    = EARTH
REF_FRAME      = TEME
TIME_SYSTEM    = UTC
MEAN_ELEMENT_THEORY = SGP/SGP4

EPOCH          = 2026-03-02T22:00:01.999584
MEAN_MOTION    = 15.80810121
ECCENTRICITY   = .00014834
INCLINATION    = 53.1581
RA_OF_ASC_NODE = 245.2310
ARG_OF_PERICENTER = 76.0526
MEAN_ANOMALY   = 30.9501

EPHEMERIS_TYPE = 0
CLASSIFICATION_TYPE = U
NORAD_CAT_ID   = 67858
ELEMENT_SET_NO = 999
REV_AT_EPOCH   = 277
BSTAR          = .47913499E-3
MEAN_MOTION_DOT = .94634E-3
MEAN_MOTION_DDOT = 0

CCSDS_OMM_VERS = 2.0
CREATION_DATE  = 
ORIGINATOR     = 

OBJECT_NAME    = STARLINK-36393
OBJECT_ID      = 2026-034K
CENTER_NAME    = EARTH
REF_FRAME      = TEME
TIME_SYSTEM    = UTC
MEAN_ELEMENT_THEORY = SGP/SGP4

EPOCH          = 2026-03-02T22:00:01.999584
MEAN_MOTION    = 15.80827311
ECCENTRICITY   = .00009341
INCLINATION    = 53.1583
RA_OF_ASC_NODE = 245.2226
ARG_OF_PERICENTER = 33.4533
MEAN_ANOMALY   = 77.8120

EPHEMERIS_TYPE = 0
CLASSIFICATION_TYPE = U
NORAD_CAT_ID   = 67859
ELEMENT_SET_NO = 999
REV_AT_EPOCH   = 277
BSTAR          = .24404141E-3
MEAN_MOTION_DOT = .47631E-3
MEAN_MOTION_DDOT = 0

CCSDS_OMM_VERS = 2.0
CREATION_DATE  = 
ORIGINATOR     = 

OBJECT_NAME    = STARLINK-35873
OBJECT_ID      = 2026-034L
CENTER_NAME    = EARTH
REF_FRAME      = TEME
TIME_SYSTEM    = UTC
MEAN_ELEMENT_THEORY = SGP/SGP4

EPOCH          = 2026-03-02T22:00:01.999584
MEAN_MOTION    = 15.80802832
ECCENTRICITY   = .0000908
INCLINATION    = 53.1601
RA_OF_ASC_NODE = 245.2138
ARG_OF_PERICENTER = 83.0535
MEAN_ANOMALY   = 32.4989

EPHEMERIS_TYPE = 0
CLASSIFICATION_TYPE = U
NORAD_CAT_ID   = 67860
ELEMENT_SET_NO = 999
REV_AT_EPOCH   = 291
BSTAR          = .43595537E-3
MEAN_MOTION_DOT = .85924E-3
MEAN_MOTION_DDOT = 0

CCSDS_OMM_VERS = 2.0
CREATION_DATE  = 
ORIGINATOR     = 

OBJECT_NAME    = STARLINK-36325
OBJECT_ID      = 2026-034M
CENTER_NAME    = EARTH
REF_FRAME      = TEME
TIME_SYSTEM    = UTC
MEAN_ELEMENT_THEORY = SGP/SGP4

EPOCH          = 2026-03-02T22:00:01.999584
MEAN_MOTION    = 15.80866357
ECCENTRICITY   = .00012507
INCLINATION    = 53.1583
RA_OF_ASC_NODE = 245.2047
ARG_OF_PERICENTER = 58.4248
MEAN_ANOMALY   = 61.3620

EPHEMERIS_TYPE = 0
CLASSIFICATION_TYPE = U
NORAD_CAT_ID   = 67861
ELEMENT_SET_NO = 999
REV_AT_EPOCH   = 277
BSTAR          = .10380047E-3
MEAN_MOTION_DOT = .19829E-3
MEAN_MOTION_DDOT = 0

